COMMENT,ORIGINATOR,NORAD_CAT_ID,OBJECT_NAME,OBJECT_TYPE,CLASSIFICATION_TYPE,INTLDES,EPOCH,EPOCH_MICROSECONDS,MEAN_MOTION,ECCENTRICITY,INCLINATION,RA_OF_ASC_NODE,ARG_OF_PERICENTER,MEAN_ANOMALY,EPHEMERIS_TYPE,ELEMENT_SET_NO,REV_AT_EPOCH,BSTAR,MEAN_MOTION_DOT,MEAN_MOTION_DDOT,FILE,TLE_LINE0,TLE_LINE1,TLE_LINE2,OBJECT_ID,OBJECT_NUMBER,SEMIMAJOR_AXIS,PERIOD,APOGEE,PERIGEE,DECAYED
"GENERATED VIA SPACETRACK.ORG API","18 SPCS","48894","SPACEBEE-107","PAYLOAD","U","21059R","2023-04-10 08:02:08","923200","15.28222924","0.0007869","97.5876","236.351","156.5562","203.6037","0","999","9904","0.0013954","0.00038489","0","3885195","0 SPACEBEE-107","1 48894U 21059R   23100.33482550  .00038489  00000-0  13954-2 0  9992","2 48894  97.5876 236.3510 0007869 156.5562 203.6037 15.28222924 99047","2021-059R","48894","6859.262","94.227","486.524","475.729","1"
"GENERATED VIA SPACETRACK.ORG API","18 SPCS","48894","SPACEBEE-107","PAYLOAD","U","21059R","2023-04-10 22:10:43","320000","15.282745","0.000788","97.5877","236.9511","154.3807","205.7824","0","999","9913","0.0015078","0.00041679","0","3885440","0 SPACEBEE-107","1 48894U 21059R   23100.92411250  .00041679  00000-0  15078-2 0  9990","2 48894  97.5877 236.9511 0007880 154.3807 205.7824 15.28274500 99130","2021-059R","48894","6859.107","94.224","486.377","475.567","1"
"GENERATED VIA SPACETRACK.ORG API","18 SPCS","48894","SPACEBEE-107","PAYLOAD","U","21059R","2023-04-11 07:36:25","401024","15.28301083","0.0007841","97.5878","237.3512","153.0114","207.1534","0","999","9919","0.0012637","0.00034915","0","3885783","0 SPACEBEE-107","1 48894U 21059R   23101.31696066  .00034915  00000-0  12637-2 0  9997","2 48894  97.5878 237.3512 0007841 153.0114 207.1534 15.28301083 99198","2021-059R","48894","6859.028","94.222","486.271","475.515","1"
"GENERATED VIA SPACETRACK.ORG API","18 SPCS","48894","SPACEBEE-107","PAYLOAD","U","21059R","2023-04-12 08:44:54","184992","15.2838457","0.0007805","97.588","238.418","149.3478","210.8219","0","999","9935","0.0012928","0.00035816","0","3886224","0 SPACEBEE-107","1 48894U 21059R   23102.36451603  .00035816  00000-0  12928-2 0  9993","2 48894  97.5880 238.4180 0007805 149.3478 210.8219 15.28384570 99356","2021-059R","48894","6858.778","94.217","485.996","475.290","1"
"GENERATED VIA SPACETRACK.ORG API","18 SPCS","48894","SPACEBEE-107","PAYLOAD","U","21059R","2023-04-12 08:44:54","184992","15.2838457","0.0007805","97.588","238.418","149.3478","210.8219","0","999","9935","0.0012928","0.00035816","0","3886349","0 SPACEBEE-107","1 48894U 21059R   23102.36451603  .00035816  00000-0  12928-2 0  9993","2 48894  97.5880 238.4180 0007805 149.3478 210.8219 15.28384570 99356","2021-059R","48894","6858.778","94.217","485.996","475.290","1"
"GENERATED VIA SPACETRACK.ORG API","18 SPCS","48894","SPACEBEE-107","PAYLOAD","U","21059R","2023-04-13 08:19:01","796448","15.28462502","0.0007771","97.5877","239.419","146.663","213.51","0","999","9950","0.0013907","0.0003864","0","3886564","0 SPACEBEE-107","1 48894U 21059R   23103.34654857  .00038640  00000-0  13907-2 0  9994","2 48894  97.5877 239.4190 0007771 146.6630 213.5100 15.28462502 99504","2021-059R","48894","6858.545","94.212","485.740","475.080","1"
"GENERATED VIA SPACETRACK.ORG API","18 SPCS","48894","SPACEBEE-107","PAYLOAD","U","21059R","2023-04-13 14:36:07","122528","15.28482086","0.0007762","97.5875","239.6858","145.8214","214.3527","0","999","9954","0.0013891","0.00038618","0","3886708","0 SPACEBEE-107","1 48894U 21059R   23103.60841577  .00038618  00000-0  13891-2 0  9997","2 48894  97.5875 239.6858 0007762 145.8214 214.3527 15.28482086 99549","2021-059R","48894","6858.486","94.211","485.675","475.028","1"
"GENERATED VIA SPACETRACK.ORG API","18 SPCS","48894","SPACEBEE-107","PAYLOAD","U","21059R","2023-04-14 07:53:05","55936","15.28545191","0.0007699","97.5873","240.4196","143.2748","216.902","0","999","9965","0.0015386","0.00042889","0","3887333","0 SPACEBEE-107","1 48894U 21059R   23104.32853074  .00042889  00000-0  15386-2 0  9998","2 48894  97.5873 240.4196 0007699 143.2748 216.9020 15.28545191 99650","2021-059R","48894","6858.297","94.207","485.443","474.882","1"
"GENERATED VIA SPACETRACK.ORG API","18 SPCS","48894","SPACEBEE-107","PAYLOAD","U","21059R","2023-04-14 20:27:12","781728","15.2859719","0.0007686","97.5876","240.9535","141.2466","218.9325","0","999","9973","0.001713","0.00047867","0","3887444","0 SPACEBEE-107","1 48894U 21059R   23104.85223127  .00047867  00000-0  17130-2 0  9996","2 48894  97.5876 240.9535 0007686 141.2466 218.9325 15.28597190 99731","2021-059R","48894","6858.142","94.204","485.278","474.736","1"
"GENERATED VIA SPACETRACK.ORG API","18 SPCS","48894","SPACEBEE-107","PAYLOAD","U","21059R","2023-04-15 09:01:19","14528","15.28646288","0.0007705","97.5876","241.487","139.159","221.0228","0","999","9981","0.0016666","0.0004663","0","3887974","0 SPACEBEE-107","1 48894U 21059R   23105.37591452  .00046630  00000-0  16666-2 0  9993","2 48894  97.5876 241.4870 0007705 139.1590 221.0228 15.28646288 99814","2021-059R","48894","6857.995","94.201","485.144","474.576","1"
"GENERATED VIA SPACETRACK.ORG API","18 SPCS","48894","SPACEBEE-107","PAYLOAD","U","21059R","2023-04-15 21:35:23","707680","15.28699401","0.0007668","97.5877","242.0208","137.4601","222.7234","0","999","9989","0.0017313","0.00048534","0","3888171","0 SPACEBEE-107","1 48894U 21059R   23105.89957995  .00048534  00000-0  17313-2 0  9993","2 48894  97.5877 242.0208 0007668 137.4601 222.7234 15.28699401 99897","2021-059R","48894","6857.836","94.198","484.960","474.443","1"
"GENERATED VIA SPACETRACK.ORG API","18 SPCS","48894","SPACEBEE-107","PAYLOAD","U","21059R","2023-04-16 08:35:11","573376","15.28743069","0.0007642","97.5876","242.4877","135.7523","224.4329","0","999","9996","0.0016836","0.0004725","0","3888626","0 SPACEBEE-107","1 48894U 21059R   23106.35777284  .00047250  00000-0  16836-2 0  9999","2 48894  97.5876 242.4877 0007642 135.7523 224.4329 15.28743069 99960","2021-059R","48894","6857.706","94.195","484.811","474.330","1"
"GENERATED VIA SPACETRACK.ORG API","18 SPCS","48894","SPACEBEE-107","PAYLOAD","U","21059R","2023-04-16 21:09:13","385952","15.28794364","0.0007569","97.5878","243.0214","134.365","225.8211","0","999","10004","0.0016354","0.00045958","0","3888799","0 SPACEBEE-107","1 48894U 21059R   23106.88140493  .00045958  00000-0  16354-2 0  9991","2 48894  97.5878 243.0214 0007569 134.3650 225.8211 15.28794364100049","2021-059R","48894","6857.552","94.192","484.608","474.227","1"
"GENERATED VIA SPACETRACK.ORG API","18 SPCS","48894","SPACEBEE-107","PAYLOAD","U","21059R","2023-04-17 08:08:58","778016","15.28839556","0.0007462","97.5881","243.4884","132.4696","227.7175","0","999","10011","0.0017217","0.00048469","0","3889095","0 SPACEBEE-107","1 48894U 21059R   23107.33956919  .00048469  00000-0  17217-2 0  9999","2 48894  97.5881 243.4884 0007462 132.4696 227.7175 15.28839556100112","2021-059R","48894","6857.417","94.189","484.399","474.165","1"
"GENERATED VIA SPACETRACK.ORG API","18 SPCS","48894","SPACEBEE-107","PAYLOAD","U","21059R","2023-04-17 08:08:58","778016","15.28839556","0.0007462","97.5881","243.4884","132.4696","227.7175","0","999","10011","0.0017217","0.00048469","0","3889215","0 SPACEBEE-107","1 48894U 21059R   23107.33956919  .00048469  00000-0  17217-2 0  9999","2 48894  97.5881 243.4884 0007462 132.4696 227.7175 15.28839556100112","2021-059R","48894","6857.417","94.189","484.399","474.165","1"
"GENERATED VIA SPACETRACK.ORG API","18 SPCS","48894","SPACEBEE-107","PAYLOAD","U","21059R","2023-04-17 20:42:57","857760","15.28890402","0.0007402","97.5884","244.0223","130.563","229.6255","0","999","10019","0.0017576","0.00049565","0","3889391","0 SPACEBEE-107","1 48894U 21059R   23107.86316965  .00049565  00000-0  17576-2 0  9994","2 48894  97.5884 244.0223 0007402 130.5630 229.6255 15.28890402100195","2021-059R","48894","6857.265","94.186","484.206","474.054","1"
"GENERATED VIA SPACETRACK.ORG API","18 SPCS","48894","SPACEBEE-107","PAYLOAD","U","21059R","2023-04-18 07:42:40","840992","15.28930806","0.0007416","97.5883","244.4896","129.245","230.9448","0","999","10026","0.0016307","0.00046016","0","3889684","0 SPACEBEE-107","1 48894U 21059R   23108.32130603  .00046016  00000-0  16307-2 0  9998","2 48894  97.5883 244.4896 0007416 129.2450 230.9448 15.28930806100264","2021-059R","48894","6857.144","94.183","484.095","473.924","1"
"GENERATED VIA SPACETRACK.ORG API","18 SPCS","48894","SPACEBEE-107","PAYLOAD","U","21059R","2023-04-19 04:07:49","175616","15.29013502","0.0007398","97.5888","245.3572","126.0642","234.1284","0","999","10039","0.0018176","0.00051466","0","3890081","0 SPACEBEE-107","1 48894U 21059R   23109.17209694  .00051466  00000-0  18176-2 0  9990","2 48894  97.5888 245.3572 0007398 126.0642 234.1284 15.29013502100391","2021-059R","48894","6856.897","94.178","483.835","473.689","1"
"GENERATED VIA SPACETRACK.ORG API","18 SPCS","48894","SPACEBEE-107","PAYLOAD","U","21059R","2023-04-19 08:50:32","74656","15.29033041","0.0007404","97.5888","245.5574","125.2548","234.9385","0","999","10042","0.0017959","0.00050877","0","3890383","0 SPACEBEE-107","1 48894U 21059R   23109.36842679  .00050877  00000-0  17959-2 0  9990","2 48894  97.5888 245.5574 0007404 125.2548 234.9385 15.29033041100423","2021-059R","48894","6856.839","94.177","483.780","473.627","1"
"GENERATED VIA SPACETRACK.ORG API","18 SPCS","48894","SPACEBEE-107","PAYLOAD","U","21059R","2023-04-20 03:41:21","586848","15.29101286","0.0007345","97.589","246.3583","122.9067","237.288","0","999","10054","0.0014929","0.0004232","0","3890608","0 SPACEBEE-107","1 48894U 21059R   23110.15372207  .00042320  00000-0  14929-2 0  9992","2 48894  97.5890 246.3583 0007345 122.9067 237.2880 15.29101286100545","2021-059R","48894","6856.635","94.173","483.536","473.463","1"
